TORO                    
1 60530U 24149BQ  26095.14685795  .00003515  00000+0  31718-3 0  9997
2 60530  97.6809 171.1832 0001438 108.9093 251.2284 14.96155424 89039
HYPSO-2                 
1 60531U 24149BR  26095.15441015  .00004960  00000+0  42009-3 0  9994
2 60531  97.6839 172.4890 0001873 132.1831 227.9551 14.98440134 89116
LEMU NGE                
1 60532U 24149BS  26095.15345939  .00004374  00000+0  40871-3 0  9997
2 60532  97.6863 171.5966 0000733 128.9240 231.2046 14.94656758 89045
LEMUR-2-STELLA          
1 60533U 24149BT  26095.23632968  .00017443  00000+0  10682-2 0  9995
2 60533  97.6742 177.4643 0000799 119.9825 240.1483 15.10257586 89487
SATELIOT_2              
1 60534U 24149BU  26095.19780171  .00002977  00000+0  26982-3 0  9998
2 60534  97.6846 171.4910 0001026  77.2392 282.8944 14.96094714 89056
NIGHTJAR                
1 60535U 24149BV  26095.15537850  .00005445  00000+0  45873-3 0  9992
2 60535  97.6857 172.8920 0001744  94.9377 265.2045 14.98606034131939
LEMUR-2-MARHISYAM       
1 60536U 24149BW  26095.19193519  .00015913  00000+0  98795-3 0  9999
2 60536  97.6877 177.7905 0002149  46.4844 313.6563 15.09775053 89464
SATELIOT_4              
1 60537U 24149BX  26095.15675988  .00004085  00000+0  36547-3 0  9996
2 60537  97.6761 171.0276 0000147 288.9379  71.1827 14.96399565 89056
PICO-02A021             
1 60538U 24149BY  26095.19472112  .00007322  00000+0  55478-3 0  9996
2 60538  97.6763 174.6962 0002859 257.3379 102.7526 15.02563020 88774
ICEYE-X43               
1 60539U 24149BZ  26095.30193742  .00005750  00000+0  47209-3 0  9995
2 60539  97.6832 173.2552 0002275  24.4696 335.6635 14.99580907 89192
HAWK-10A                
1 60540U 24149CA  26095.14897820  .00002829  00000+0  25539-3 0  9993
2 60540  97.6908 172.3189 0002360 337.1932  22.9184 14.96288620 89061
UMBRA-09                
1 60541U 24149CB  26095.24219084  .00023494  00000+0  12277-2 0  9990
2 60541  97.6961 181.3325 0001728 204.0960 156.0192 15.15887395 89663
QPS-SAR-8 (AMATERU-IV)  
1 60542U 24149CC  26095.19737455  .00007512  00000+0  55634-3 0  9990
2 60542  97.6681 174.9991 0003508  30.8940 329.2491 15.03415664 89301
ARCTIC WEATHER SATELLITE
1 60543U 24149CD  26095.14551653  .00001439  00000+0  15550-3 0  9995
2 60543  97.6838 167.6854 0002316  31.7708 328.3650 14.89810113 88421
CAPELLA-15 (ACADIA-5)   
1 60544U 24149CE  26095.17507906  .00009020  00000+0  88363-3 0  9997
2 60544  97.6801 169.8872 0002598 328.6828  31.4236 14.92490633 88965
HAWK-10B                
1 60545U 24149CF  26095.14888882  .00002954  00000+0  26642-3 0  9991
2 60545  97.6832 171.7471 0004645 353.6589   6.4573 14.96290668 89062
