[{"OBJECT_NAME":"TORO","OBJECT_ID":"2024-149BQ","EPOCH":"2026-04-05T03:31:28.526880","MEAN_MOTION":14.96155424,"ECCENTRICITY":0.00014387,"INCLINATION":97.6809,"RA_OF_ASC_NODE":171.1832,"ARG_OF_PERICENTER":108.9093,"MEAN_ANOMALY":251.2284,"EPHEMERIS_TYPE":0,"CLASSIFICATION_TYPE":"U","NORAD_CAT_ID":60530,"ELEMENT_SET_NO":999,"REV_AT_EPOCH":8903,"BSTAR":0.00031717766,"MEAN_MOTION_DOT":3.515e-5,"MEAN_MOTION_DDOT":0},{"OBJECT_NAME":"HYPSO-2","OBJECT_ID":"2024-149BR","EPOCH":"2026-04-05T03:42:21.036960","MEAN_MOTION":14.98440134,"ECCENTRICITY":0.00018734,"INCLINATION":97.6839,"RA_OF_ASC_NODE":172.489,"ARG_OF_PERICENTER":132.1831,"MEAN_ANOMALY":227.9551,"EPHEMERIS_TYPE":0,"CLASSIFICATION_TYPE":"U","NORAD_CAT_ID":60531,"ELEMENT_SET_NO":999,"REV_AT_EPOCH":8911,"BSTAR":0.00042008724,"MEAN_MOTION_DOT":4.96e-5,"MEAN_MOTION_DDOT":0},{"OBJECT_NAME":"LEMU NGE","OBJECT_ID":"2024-149BS","EPOCH":"2026-04-05T03:40:58.891296","MEAN_MOTION":14.94656758,"ECCENTRICITY":7.331e-5,"INCLINATION":97.6863,"RA_OF_ASC_NODE":171.5966,"ARG_OF_PERICENTER":128.924,"MEAN_ANOMALY":231.2046,"EPHEMERIS_TYPE":0,"CLASSIFICATION_TYPE":"U","NORAD_CAT_ID":60532,"ELEMENT_SET_NO":999,"REV_AT_EPOCH":8904,"BSTAR":0.00040870703,"MEAN_MOTION_DOT":4.374e-5,"MEAN_MOTION_DDOT":0},{"OBJECT_NAME":"LEMUR-2-STELLA","OBJECT_ID":"2024-149BT","EPOCH":"2026-04-05T05:40:18.884352","MEAN_MOTION":15.10257586,"ECCENTRICITY":7.99e-5,"INCLINATION":97.6742,"RA_OF_ASC_NODE":177.4643,"ARG_OF_PERICENTER":119.9825,"MEAN_ANOMALY":240.1483,"EPHEMERIS_TYPE":0,"CLASSIFICATION_TYPE":"U","NORAD_CAT_ID":60533,"ELEMENT_SET_NO":999,"REV_AT_EPOCH":8948,"BSTAR":0.0010681959,"MEAN_MOTION_DOT":0.00017443,"MEAN_MOTION_DDOT":0},{"OBJECT_NAME":"SATELIOT_2","OBJECT_ID":"2024-149BU","EPOCH":"2026-04-05T04:44:50.067744","MEAN_MOTION":14.96094714,"ECCENTRICITY":0.00010263,"INCLINATION":97.6846,"RA_OF_ASC_NODE":171.491,"ARG_OF_PERICENTER":77.2392,"MEAN_ANOMALY":282.8944,"EPHEMERIS_TYPE":0,"CLASSIFICATION_TYPE":"U","NORAD_CAT_ID":60534,"ELEMENT_SET_NO":999,"REV_AT_EPOCH":8905,"BSTAR":0.00026981644,"MEAN_MOTION_DOT":2.977e-5,"MEAN_MOTION_DDOT":0},{"OBJECT_NAME":"NIGHTJAR","OBJECT_ID":"2024-149BV","EPOCH":"2026-04-05T03:43:44.702400","MEAN_MOTION":14.98606034,"ECCENTRICITY":0.00017448,"INCLINATION":97.6857,"RA_OF_ASC_NODE":172.892,"ARG_OF_PERICENTER":94.9377,"MEAN_ANOMALY":265.2045,"EPHEMERIS_TYPE":0,"CLASSIFICATION_TYPE":"U","NORAD_CAT_ID":60535,"ELEMENT_SET_NO":999,"REV_AT_EPOCH":13193,"BSTAR":0.0004587311,"MEAN_MOTION_DOT":5.445e-5,"MEAN_MOTION_DDOT":0},{"OBJECT_NAME":"LEMUR-2-MARHISYAM","OBJECT_ID":"2024-149BW","EPOCH":"2026-04-05T04:36:23.200416","MEAN_MOTION":15.09775053,"ECCENTRICITY":0.00021492,"INCLINATION":97.6877,"RA_OF_ASC_NODE":177.7905,"ARG_OF_PERICENTER":46.4844,"MEAN_ANOMALY":313.6563,"EPHEMERIS_TYPE":0,"CLASSIFICATION_TYPE":"U","NORAD_CAT_ID":60536,"ELEMENT_SET_NO":999,"REV_AT_EPOCH":8946,"BSTAR":0.00098795323,"MEAN_MOTION_DOT":0.00015913,"MEAN_MOTION_DDOT":0},{"OBJECT_NAME":"SATELIOT_4","OBJECT_ID":"2024-149BX","EPOCH":"2026-04-05T03:45:44.053632","MEAN_MOTION":14.96399565,"ECCENTRICITY":1.476e-5,"INCLINATION":97.6761,"RA_OF_ASC_NODE":171.0276,"ARG_OF_PERICENTER":288.9379,"MEAN_ANOMALY":71.1827,"EPHEMERIS_TYPE":0,"CLASSIFICATION_TYPE":"U","NORAD_CAT_ID":60537,"ELEMENT_SET_NO":999,"REV_AT_EPOCH":8905,"BSTAR":0.00036547189,"MEAN_MOTION_DOT":4.085e-5,"MEAN_MOTION_DDOT":0},{"OBJECT_NAME":"PICO-02A021","OBJECT_ID":"2024-149BY","EPOCH":"2026-04-05T04:40:23.904768","MEAN_MOTION":15.0256302,"ECCENTRICITY":0.00028598,"INCLINATION":97.6763,"RA_OF_ASC_NODE":174.6962,"ARG_OF_PERICENTER":257.3379,"MEAN_ANOMALY":102.7526,"EPHEMERIS_TYPE":0,"CLASSIFICATION_TYPE":"U","NORAD_CAT_ID":60538,"ELEMENT_SET_NO":999,"REV_AT_EPOCH":8877,"BSTAR":0.00055477654,"MEAN_MOTION_DOT":7.322e-5,"MEAN_MOTION_DDOT":0},{"OBJECT_NAME":"ICEYE-X43","OBJECT_ID":"2024-149BZ","EPOCH":"2026-04-05T07:14:47.393088","MEAN_MOTION":14.99580907,"ECCENTRICITY":0.00022752,"INCLINATION":97.6832,"RA_OF_ASC_NODE":173.2552,"ARG_OF_PERICENTER":24.4696,"MEAN_ANOMALY":335.6635,"EPHEMERIS_TYPE":0,"CLASSIFICATION_TYPE":"U","NORAD_CAT_ID":60539,"ELEMENT_SET_NO":999,"REV_AT_EPOCH":8919,"BSTAR":0.00047209187,"MEAN_MOTION_DOT":5.75e-5,"MEAN_MOTION_DDOT":0},{"OBJECT_NAME":"HAWK-10A","OBJECT_ID":"2024-149CA","EPOCH":"2026-04-05T03:34:31.716480","MEAN_MOTION":14.9628862,"ECCENTRICITY":0.00023608,"INCLINATION":97.6908,"RA_OF_ASC_NODE":172.3189,"ARG_OF_PERICENTER":337.1932,"MEAN_ANOMALY":22.9184,"EPHEMERIS_TYPE":0,"CLASSIFICATION_TYPE":"U","NORAD_CAT_ID":60540,"ELEMENT_SET_NO":999,"REV_AT_EPOCH":8906,"BSTAR":0.00025539442,"MEAN_MOTION_DOT":2.829e-5,"MEAN_MOTION_DDOT":0},{"OBJECT_NAME":"UMBRA-09","OBJECT_ID":"2024-149CB","EPOCH":"2026-04-05T05:48:45.288576","MEAN_MOTION":15.15887395,"ECCENTRICITY":0.00017284,"INCLINATION":97.6961,"RA_OF_ASC_NODE":181.3325,"ARG_OF_PERICENTER":204.096,"MEAN_ANOMALY":156.0192,"EPHEMERIS_TYPE":0,"CLASSIFICATION_TYPE":"U","NORAD_CAT_ID":60541,"ELEMENT_SET_NO":999,"REV_AT_EPOCH":8966,"BSTAR":0.0012277341,"MEAN_MOTION_DOT":0.00023494,"MEAN_MOTION_DDOT":0},{"OBJECT_NAME":"QPS-SAR-8 (AMATERU-IV)","OBJECT_ID":"2024-149CC","EPOCH":"2026-04-05T04:44:13.161120","MEAN_MOTION":15.03415664,"ECCENTRICITY":0.00035083,"INCLINATION":97.6681,"RA_OF_ASC_NODE":174.9991,"ARG_OF_PERICENTER":30.894,"MEAN_ANOMALY":329.2491,"EPHEMERIS_TYPE":0,"CLASSIFICATION_TYPE":"U","NORAD_CAT_ID":60542,"ELEMENT_SET_NO":999,"REV_AT_EPOCH":8930,"BSTAR":0.00055633557,"MEAN_MOTION_DOT":7.512e-5,"MEAN_MOTION_DDOT":0},{"OBJECT_NAME":"ARCTIC WEATHER SATELLITE","OBJECT_ID":"2024-149CD","EPOCH":"2026-04-05T03:29:32.628192","MEAN_MOTION":14.89810113,"ECCENTRICITY":0.00023169,"INCLINATION":97.6838,"RA_OF_ASC_NODE":167.6854,"ARG_OF_PERICENTER":31.7708,"MEAN_ANOMALY":328.365,"EPHEMERIS_TYPE":0,"CLASSIFICATION_TYPE":"U","NORAD_CAT_ID":60543,"ELEMENT_SET_NO":999,"REV_AT_EPOCH":8842,"BSTAR":0.00015550452,"MEAN_MOTION_DOT":1.439e-5,"MEAN_MOTION_DDOT":0},{"OBJECT_NAME":"CAPELLA-15 (ACADIA-5)","OBJECT_ID":"2024-149CE","EPOCH":"2026-04-05T04:12:06.830784","MEAN_MOTION":14.92490633,"ECCENTRICITY":0.00025986,"INCLINATION":97.6801,"RA_OF_ASC_NODE":169.8872,"ARG_OF_PERICENTER":328.6828,"MEAN_ANOMALY":31.4236,"EPHEMERIS_TYPE":0,"CLASSIFICATION_TYPE":"U","NORAD_CAT_ID":60544,"ELEMENT_SET_NO":999,"REV_AT_EPOCH":8896,"BSTAR":0.0008836305,"MEAN_MOTION_DOT":9.02e-5,"MEAN_MOTION_DDOT":0},{"OBJECT_NAME":"HAWK-10B","OBJECT_ID":"2024-149CF","EPOCH":"2026-04-05T03:34:23.994048","MEAN_MOTION":14.96290668,"ECCENTRICITY":0.00046453,"INCLINATION":97.6832,"RA_OF_ASC_NODE":171.7471,"ARG_OF_PERICENTER":353.6589,"MEAN_ANOMALY":6.4573,"EPHEMERIS_TYPE":0,"CLASSIFICATION_TYPE":"U","NORAD_CAT_ID":60545,"ELEMENT_SET_NO":999,"REV_AT_EPOCH":8906,"BSTAR":0.00026642133,"MEAN_MOTION_DOT":2.954e-5,"MEAN_MOTION_DDOT":0}]
